GLOBALSTAR M068         
1 32266U 07048D   25117.96085606 -.00000058  00000+0  25620-3 0  9995
2 32266  51.9871  95.3608 0001244  29.4447 348.0944 12.62822086811216
GLOBALSTAR M079         
1 37188U 10054A   25118.86404550 -.00000096  00000+0  44083-4 0  9994
2 37188  52.0039 289.9333 0000940 123.7458  23.3265 12.62273524670905
GLOBALSTAR M074         
1 37189U 10054B   25118.89078870 -.00000101  00000+0  16007-4 0  9992
2 37189  52.0017 289.1833 0000633 109.1877  38.1287 12.62274511670906
GLOBALSTAR M076         
1 37190U 10054C   25117.89146662 -.00000072  00000+0  17470-3 0  9999
2 37190  52.0028 292.3898 0000652 125.2114  40.5231 12.62261960670428
GLOBALSTAR M077         
1 37191U 10054D   25117.54643919 -.00000103  00000+0  35355-5 0  9998
2 37191  52.0066 250.2827 0000668 123.0671 333.0227 12.62273612671497
GLOBALSTAR M075         
1 37192U 10054E   25117.97855258 -.00000079  00000+0  13954-3 0  9998
2 37192  51.9965 334.4114 0000732  89.4961  51.5013 12.62264049670035
GLOBALSTAR M073         
1 37193U 10054F   25118.51915271 -.00000094  00000+0  53564-4 0  9991
2 37193  52.0054 246.5461 0000677 132.2775 305.1944 12.62270863671610
GLOBALSTAR M083         
1 37739U 11033A   25117.68039771 -.00000067  00000+0  20364-3 0  9995
2 37739  51.9847 197.8999 0000583 126.2761  38.4723 12.62263419640472
GLOBALSTAR M088         
1 37740U 11033B   25118.10947961 -.00000103  00000+0  29391-5 0  9996
2 37740  51.9718 102.1222 0000350  69.1360   7.4483 12.62265908636368
GLOBALSTAR M091         
1 37741U 11033C   25118.82391168 -.00000109  00000+0 -26618-4 0  9993
2 37741  52.0008  63.4136 0000704  78.6161 305.2187 12.62267364637216
GLOBALSTAR M085         
1 37742U 11033D   25118.01635472 -.00000083  00000+0  11646-3 0  9998
2 37742  51.9896  16.9566 0000863  84.8828 287.7300 12.62267767637853
GLOBALSTAR M081         
1 37743U 11033E   25118.76043668 -.00000081  00000+0  12600-3 0  9990
2 37743  51.9990  17.4474 0000661  94.6438 300.3986 12.62263103637981
GLOBALSTAR M089         
1 37744U 11033F   25118.55849199 -.00000075  00000+0  16282-3 0  9994
2 37744  51.9950 332.3008 0000546  86.2382 291.5275 12.62269319638671
GLOBALSTAR M084         
1 38040U 11080A   25117.54141899 -.00000063  00000+0  22988-3 0  9993
2 38040  51.9999 202.6578 0000187 166.8678 206.2277 12.62265532616279
GLOBALSTAR M080         
1 38041U 11080B   25117.94350944 -.00000077  00000+0  14849-3 0  9993
2 38041  52.0052 203.0076 0000743  91.4591  79.9824 12.62262319616447
GLOBALSTAR M082         
1 38042U 11080C   25118.82975274 -.00000070  00000+0  19119-3 0  9999
2 38042  52.0055 155.7659 0000606  91.4923  79.1679 12.62265913617431
GLOBALSTAR M092         
1 38043U 11080D   25118.79987630 -.00000077  00000+0  15030-3 0  9990
2 38043  52.0080 246.2296 0000606 112.0328  43.1357 12.62263834615928
GLOBALSTAR M090         
1 38044U 11080E   25118.53611407 -.00000067  00000+0  20269-3 0  9998
2 38044  51.9863 150.5313 0000383 108.4785  47.1867 12.62269963617382
GLOBALSTAR M086         
1 38045U 11080F   25118.56408461 -.00000064  00000+0  22032-3 0  9993
2 38045  51.9873 150.9932 0000921 195.4198 327.8256 12.62270027617391
GLOBALSTAR M097         
1 39072U 13005A   25118.15882569 -.00000126  00000+0 -12486-3 0  9995
2 39072  52.0054  66.7201 0000467  90.6517 269.4403 12.62271715564575
GLOBALSTAR M093         
1 39073U 13005B   25118.76569751 -.00000106  00000+0 -15020-4 0  9994
2 39073  51.9821  58.2533 0000543  83.5787 276.5141 12.62264048564642
GLOBALSTAR M094         
1 39074U 13005C   25117.97396429 -.00000075  00000+0  16145-3 0  9999
2 39074  51.9978 335.0009 0000972 107.1016 252.9957 12.62270242566057
GLOBALSTAR M096         
1 39075U 13005D   25118.69988456 -.00000076  00000+0  15501-3 0  9993
2 39075  52.0099  21.2651 0000884  92.2381 267.8587 12.62270645565399
GLOBALSTAR M078         
1 39076U 13005E   25118.11885214 -.00000110  00000+0 -33846-4 0  9992
2 39076  51.9854 107.6087 0001227  69.9672 290.1326 12.62261631563804
GLOBALSTAR M095         
1 39077U 13005F   25117.90783784 -.00000103  00000+0  32175-5 0  9994
2 39077  51.9781 105.4737 0000764  90.0598 270.0355 12.62269471563785
GLOBALSTAR M087         
1 52888U 22064A   25118.49273687 -.00000092  00000+0  68063-4 0  9996
2 52888  51.9785 245.0958 0000823 117.9403 242.1547 12.62271379139096
